GPS BIIR-2  (PRN 13)    
1 24876U 97035A   16139.68866499 -.00000042  00000-0  00000+0 0  9993
2 24876  55.6641 242.6552 0041878 115.9023 244.5433  2.00562930137914
GPS BIIR-3  (PRN 11)    
1 25933U 99055A   16140.52868706 -.00000026  00000-0  00000+0 0  9992
2 25933  51.3747  94.9195 0161536  87.2080  85.9957  2.00564059121744
GPS BIIR-4  (PRN 20)    
1 26360U 00025A   16140.25527001  .00000073  00000-0  00000+0 0  9997
2 26360  53.0738 171.3194 0043658  77.8517 358.7431  2.00555697117438
GPS BIIR-5  (PRN 28)    
1 26407U 00040A   16140.45979571 -.00000069  00000-0  00000+0 0  9997
2 26407  56.6984   0.4898 0199520 267.4848 236.2369  2.00569711116126
GPS BIIR-6  (PRN 14)    
1 26605U 00071A   16140.42946936 -.00000030  00000-0  00000+0 0  9995
2 26605  55.2334 240.5065 0088459 247.9702 158.8479  2.00523910113717
GPS BIIR-7  (PRN 18)    
1 26690U 01004A   16140.39907446  .00000071  00000-0  00000+0 0  9999
2 26690  53.0010 174.2829 0173626 252.1830 236.3459  2.00561845112112
GPS BIIR-8  (PRN 16)    
1 27663U 03005A   16140.55984927 -.00000068  00000-0  00000+0 0  9997
2 27663  56.7726   0.2019 0086699  20.3202 315.3619  2.00554360 97489
GPS BIIR-9  (PRN 21)    
1 27704U 03010A   16140.37457152  .00000019  00000-0  00000+0 0  9999
2 27704  53.6523 114.5835 0236001 257.4803 269.2984  2.00570093 96274
GPS BIIR-10 (PRN 22)    
1 28129U 03058A   16140.37929815  .00000048  00000-0  10000-3 0  9990
2 28129  52.8802 174.3220 0078785 250.5224 108.7104  2.00548023 90973
GPS BIIR-11 (PRN 19)    
1 28190U 04009A   16140.20358538 -.00000075  00000-0  00000+0 0  9991
2 28190  55.7740  61.5477 0106264  43.1454 186.2884  2.00570514 89154
GPS BIIR-12 (PRN 23)    
1 28361U 04023A   16140.52393269 -.00000023  00000-0  00000+0 0  9995
2 28361  54.2045 236.0176 0110259 213.3176 161.6357  2.00563004 87248
GPS BIIR-13 (PRN 02)    
1 28474U 04045A   16138.72826642  .00000027  00000-0  00000+0 0  9992
2 28474  54.0409 113.9624 0158790 239.0047 280.9960  2.00551292 84563
GPS BIIRM-1 (PRN 17)    
1 28874U 05038A   16140.56835046 -.00000075  00000-0  00000+0 0  9996
2 28874  55.9400  58.7371 0111895 250.0253 269.0583  2.00562010 78001
GPS BIIRM-2 (PRN 31)    
1 29486U 06042A   16140.45004282 -.00000065  00000-0  00000+0 0  9999
2 29486  55.6546 298.0193 0082661 335.8447  16.9543  2.00555252 70710
GPS BIIRM-3 (PRN 12)    
1 29601U 06052A   16137.41235707 -.00000081  00000-0  00000+0 0  9997
2 29601  56.7434 359.2485 0059736  40.7392 319.7504  2.00557408 69577
GPS BIIRM-4 (PRN 15)    
1 32260U 07047A   16139.22495871 -.00000035  00000-0  00000+0 0  9997
2 32260  53.3333 232.7667 0080141  26.2333 334.1998  2.00572807 62995
GPS BIIRM-5 (PRN 29)    
1 32384U 07062A   16139.25948182 -.00000081  00000-0  00000+0 0  9993
2 32384  55.9948  59.3454 0010746 332.3006 191.1707  2.00575983 61728
GPS BIIRM-6 (PRN 07)    
1 32711U 08012A   16140.13226006 -.00000066  00000-0  00000+0 0  9999
2 32711  55.3785 297.4984 0095452 207.7578 151.7073  2.00566499 59934
GPS BIIRM-7 (PRN 04)    
1 34661U 09014A   16140.33954869 -.00000069  00000-0  00000+0 0  9998
2 34661  56.3428 357.4602 0082976  49.7011 167.6016  2.00569567 52465
GPS BIIRM-8 (PRN 05)    
1 35752U 09043A   16138.66414911  .00000064  00000-0  00000+0 0  9998
2 35752  54.2239 175.5519 0045016  23.3210  22.2182  2.00549579 49482
GPS BIIF-1  (PRN 25)    
1 36585U 10022A   16138.74489557 -.00000074  00000-0  00000+0 0  9991
2 36585  56.0694 356.2861 0054376  42.1973 171.0305  2.00554824 43735
GPS BIIF-2  (PRN 01)    
1 37753U 11036A   16140.48066455  .00000026  00000-0  00000+0 0  9993
2 37753  55.2581 116.4883 0053502  24.0530  88.4500  2.00566854 35440
GPS BIIF-3  (PRN 24)    
1 38833U 12053A   16139.81365420 -.00000069  00000-0  00000+0 0  9990
2 38833  54.4094 294.8174 0043312  21.1946 338.9595  2.00569907 26518
GPS BIIF-4  (PRN 27)    
1 39166U 13023A   16140.17237494 -.00000080  00000-0  00000+0 0  9991
2 39166  55.6501  55.8965 0035986  12.1269 347.9579  2.00567800 22038
GPS BIIF-5  (PRN 30)    
1 39533U 14008A   16139.17269975 -.00000068  00000-0  00000+0 0  9996
2 39533  54.5648 300.0737 0020531 178.2625 181.7261  2.00571762 16383
GPS BIIF-6  (PRN 06)    
1 39741U 14026A   16139.94992727  .00000027  00000-0  00000+0 0  9994
2 39741  55.2482 116.0262 0006689 275.5954  84.3097  2.00561296 14687
GPS BIIF-7  (PRN 09)    
1 40105U 14045A   16140.04106711 -.00000028  00000-0  00000+0 0  9996
2 40105  54.7238 235.7322 0004270 147.4071 212.6478  2.00574471 13130
GPS BIIF-8  (PRN 03)    
1 40294U 14068A   16140.41433262  .00000075  00000-0  00000+0 0  9996
2 40294  54.9647 176.1568 0004570 257.7240 102.3066  2.00560241 11362
GPS BIIF-9  (PRN 26)    
1 40534U 15013A   16140.05606306 -.00000073  00000-0  00000+0 0  9994
2 40534  55.0365 355.7286 0010122 357.0626   2.9777  2.00554031  8429
GPS BIIF-10  (PRN 08)   
1 40730U 15033A   16140.21098660 -.00000080  00000-0  00000+0 0  9998
2 40730  55.1866  55.7443 0019762 293.0993  66.6918  2.00561689  6183
GPS BIIF-11  (PRN 10)   
1 41019U 15062A   16140.26469850  .00000074  00000-0  00000+0 0  9991
2 41019  54.9782 175.9317 0015474 211.1647 148.8246  2.00562213  4006
GPS BIIF-12  (PRN 32)   
1 41328U 16007A   16139.85544709 -.00000030  00000-0  00000+0 0  9997
2 41328  54.9882 235.8159 0004810 246.1604 113.8149  2.00572739  2065
